COMMENT,ORIGINATOR,NORAD_CAT_ID,OBJECT_NAME,OBJECT_TYPE,CLASSIFICATION_TYPE,INTLDES,EPOCH,EPOCH_MICROSECONDS,MEAN_MOTION,ECCENTRICITY,INCLINATION,RA_OF_ASC_NODE,ARG_OF_PERICENTER,MEAN_ANOMALY,EPHEMERIS_TYPE,ELEMENT_SET_NO,REV_AT_EPOCH,BSTAR,MEAN_MOTION_DOT,MEAN_MOTION_DDOT,FILE,TLE_LINE0,TLE_LINE1,TLE_LINE2,OBJECT_ID,OBJECT_NUMBER,SEMIMAJOR_AXIS,PERIOD,APOGEE,PERIGEE,DECAYED
GENERATED VIA SPACETRACK.ORG API,18 SPCS,25967,UFO 10 (USA 146),PAYLOAD,U,99063A,2024-03-22 16:23:03,533856,1.00273244,0.0002864,9.4224,31.007,289.028,83.5835,0,999,8915,0,-0.00000188,0,4242217,0 UFO 10 (USA 146),1 25967U 99063A   24082.68267979 -.00000188  00000-0  00000+0 0  9993,2 25967   9.4224  31.0070 0002864 289.0280  83.5835  1.00273244 89150,1999-063A,25967,42164.323,1436.076,35798.264,35774.112,0
GENERATED VIA SPACETRACK.ORG API,18 SPCS,25967,UFO 10 (USA 146),PAYLOAD,U,99063A,2024-03-22 16:23:03,533856,1.00273244,0.0002864,9.4224,31.007,289.028,83.5835,0,999,8916,0,-0.00000188,0,4242350,0 UFO 10 (USA 146),1 25967U 99063A   24082.68267979 -.00000188  00000-0  00000-0 0  9994,2 25967   9.4224  31.0070 0002864 289.0280  83.5835  1.00273244 89161,1999-063A,25967,42164.323,1436.076,35798.264,35774.112,0
GENERATED VIA SPACETRACK.ORG API,18 SPCS,25001,TITAN 3C TRANSTAGE DEB,DEBRIS,U,68081H,2024-03-22 15:38:04,299360,1.01691587,0.0070126,1.0217,349.0222,39.1626,207.5141,0,999,11001,0,0.0000007,0,4242350,0 TITAN 3C TRANSTAGE DEB,1 25001U 68081H   24082.65143865  .00000070  00000-0  00000-0 0  9992,2 25001   1.0217 349.0222 0070126  39.1626 207.5141  1.01691587110017,1968-081H,25001,41771.348,1416.046,35686.139,35100.287,0
GENERATED VIA SPACETRACK.ORG API,18 SPCS,43162,SBIRS GEO 3 (USA 282),PAYLOAD,U,18009A,2024-03-22 15:28:56,750592,1.00272569,0.0001972,2.4659,332.5144,25.9941,254.9294,0,999,2265,0,0.00000119,0,4239209,0 SBIRS GEO 3 (USA 282),1 43162U 18009A   24082.64510128  .00000119  00000-0  00000-0 0  9998,2 43162   2.4659 332.5144 0001972  25.9941 254.9294  1.00272569 22657,2018-009A,43162,42164.512,1436.086,35794.692,35778.062,0
GENERATED VIA SPACETRACK.ORG API,18 SPCS,44307,YAMAL 601,PAYLOAD,U,19031A,2024-03-22 15:00:23,754816,1.00273506,0.0002334,0.0107,175.127,183.0229,96.5381,0,999,1772,0,0.00000112,0,4239209,0 YAMAL 601,1 44307U 19031A   24082.62527494  .00000112  00000-0  00000-0 0  9991,2 44307   0.0107 175.1270 0002334 183.0229  96.5381  1.00273506 17721,2019-031A,44307,42164.250,1436.072,35795.956,35776.273,0
GENERATED VIA SPACETRACK.ORG API,18 SPCS,41384,IRNSS 1F,PAYLOAD,U,16015A,2024-03-22 14:55:53,80032,1.00274796,0.0019369,3.3666,121.1092,191.6344,124.2974,0,999,2947,0,0.00000154,0,4239209,0 IRNSS 1F,1 41384U 16015A   24082.62214213  .00000154  00000-0  00000-0 0  9990,2 41384   3.3666 121.1092 0019369 191.6344 124.2974  1.00274796 29475,2016-015A,41384,42163.888,1436.054,35867.420,35704.086,0
GENERATED VIA SPACETRACK.ORG API,18 SPCS,29055,ASTRA 1KR,PAYLOAD,U,06012A,2024-03-22 14:51:59,997888,1.00272278,0.0002588,0.0357,282.3214,21.5268,118.9045,0,999,3752,0,0.00000112,0,4239209,0 ASTRA 1KR,1 29055U 06012A   24082.61944442  .00000112  00000-0  00000-0 0  9994,2 29055   0.0357 282.3214 0002588  21.5268 118.9045  1.00272278 37521,2006-012A,29055,42164.594,1436.090,35797.371,35775.547,0
GENERATED VIA SPACETRACK.ORG API,18 SPCS,33436,ASTRA 1M,PAYLOAD,U,08057A,2024-03-22 14:51:59,997888,1.00272769,0.0001826,0.0246,97.6339,311.8658,13.2687,0,999,3754,0,0.00000112,0,4239209,0 ASTRA 1M,1 33436U 08057A   24082.61944442  .00000112  00000-0  00000-0 0  9993,2 33436   0.0246  97.6339 0001826 311.8658  13.2687  1.00272769 37549,2008-057A,33436,42164.456,1436.083,35794.020,35778.622,0
GENERATED VIA SPACETRACK.ORG API,18 SPCS,44479,AMOS 17,PAYLOAD,U,19050A,2024-03-22 14:51:22,405248,1.00272763,0.0001609,0.0161,143.5524,237.2876,39.5608,0,999,1699,0,0.00000102,0,4239209,0 AMOS 17,1 44479U 19050A   24082.61900932  .00000102  00000-0  00000-0 0  9992,2 44479   0.0161 143.5524 0001609 237.2876  39.5608  1.00272763 16997,2019-050A,44479,42164.458,1436.083,35793.107,35779.539,0
GENERATED VIA SPACETRACK.ORG API,18 SPCS,44457,COSMOS 2539,PAYLOAD,U,19048A,2024-03-22 14:49:59,697984,1.0027262,0.0000228,0.0145,133.114,258.791,23.1778,0,999,1703,0,0.00000073,0,4238771,0 COSMOS 2539,1 44457U 19048A   24082.61805206  .00000073  00000-0  00000+0 0  9999,2 44457   0.0145 133.1140 0000228 258.7910  23.1778  1.00272620 17032,2019-048A,44457,42164.498,1436.085,35787.324,35785.402,0
GENERATED VIA SPACETRACK.ORG API,18 SPCS,44457,COSMOS 2539,PAYLOAD,U,19048A,2024-03-22 14:49:59,697984,1.0027262,0.0000228,0.0145,133.114,258.791,23.1778,0,999,1703,0,0.00000073,0,4239209,0 COSMOS 2539,1 44457U 19048A   24082.61805206  .00000073  00000-0  00000-0 0  9990,2 44457   0.0145 133.1140 0000228 258.7910  23.1778  1.00272620 17032,2019-048A,44457,42164.498,1436.085,35787.324,35785.402,0
GENERATED VIA SPACETRACK.ORG API,18 SPCS,41469,IRNSS 1G,PAYLOAD,U,16027A,2024-03-22 14:49:49,709280,1.00267848,0.000545,3.2468,122.3748,299.0678,111.0865,0,999,2899,0,-0.00000341,0,4238588,0 IRNSS 1G,1 41469U 16027A   24082.61793645 -.00000341  00000-0  00000-0 0  9996,2 41469   3.2468 122.3748 0005450 299.0678 111.0865  1.00267848 28997,2016-027A,41469,42165.836,1436.153,35810.681,35764.720,0
GENERATED VIA SPACETRACK.ORG API,18 SPCS,42749,ECHOSTAR 21,PAYLOAD,U,17032A,2024-03-22 14:49:29,623008,1.00273656,0.0002465,2.6888,318.0363,37.3388,57.8292,0,999,2492,0,0.00000055,0,4239209,0 ECHOSTAR 21,1 42749U 17032A   24082.61770397  .00000055  00000-0  00000-0 0  9995,2 42749   2.6888 318.0363 0002465  37.3388  57.8292  1.00273656 24923,2017-032A,42749,42164.207,1436.070,35796.466,35775.679,0
GENERATED VIA SPACETRACK.ORG API,18 SPCS,42915,TDRS 13,PAYLOAD,U,17047A,2024-03-22 14:43:06,166848,1.00272506,0.0014582,3.7135,342.8374,105.2866,301.7173,0,999,2416,0,-0.00000109,0,4239209,0 TDRS 13,1 42915U 17047A   24082.61326582 -.00000109  00000-0  00000-0 0  9990,2 42915   3.7135 342.8374 0014582 105.2866 301.7173  1.00272506 24169,2017-047A,42915,42164.530,1436.087,35847.879,35724.911,0
GENERATED VIA SPACETRACK.ORG API,18 SPCS,41937,SBIRS GEO 4 (USA 273),PAYLOAD,U,17004A,2024-03-22 14:27:18,707040,1.00272192,0.0002455,1.4466,351.3512,2.5647,306.6735,0,999,2641,0,-0.00000151,0,4238588,0 SBIRS GEO 4 (USA 273),1 41937U 17004A   24082.60229985 -.00000151  00000-0  00000-0 0  9991,2 41937   1.4466 351.3512 0002455   2.5647 306.6735  1.00272192 26414,2017-004A,41937,42164.618,1436.091,35796.834,35776.131,0
GENERATED VIA SPACETRACK.ORG API,18 SPCS,33373,NIMIQ 4,PAYLOAD,U,08044A,2024-03-22 14:23:03,166080,1.00266411,0.0002061,0.0299,139.0922,246.9281,288.3369,0,999,5665,0,-0.00000227,0,4238757,0 NIMIQ 4,1 33373U 08044A   24082.59934220 -.00000227  00000-0  00000+0 0  9996,2 33373   0.0299 139.0922 0002061 246.9281 288.3369  1.00266411 56650,2008-044A,33373,42166.239,1436.174,35796.794,35779.413,0
GENERATED VIA SPACETRACK.ORG API,18 SPCS,33373,NIMIQ 4,PAYLOAD,U,08044A,2024-03-22 14:23:03,166080,1.00266411,0.0002061,0.0299,139.0922,246.9281,288.3369,0,999,5679,0,-0.00000227,0,4239209,0 NIMIQ 4,1 33373U 08044A   24082.59934220 -.00000227  00000-0  00000-0 0  9997,2 33373   0.0299 139.0922 0002061 246.9281 288.3369  1.00266411 56795,2008-044A,33373,42166.239,1436.174,35796.794,35779.413,0
GENERATED VIA SPACETRACK.ORG API,18 SPCS,28945,SPAINSAT,PAYLOAD,U,06007A,2024-03-22 13:57:36,731232,1.00272042,0.0002863,0.0237,220.9162,128.0479,11.0085,0,999,6602,0,-0.00000223,0,4241084,0 SPAINSAT,1 28945U 06007A   24082.58167513 -.00000223  00000-0  00000-0 0  9991,2 28945   0.0237 220.9162 0002863 128.0479  11.0085  1.00272042 66021,2006-007A,28945,42164.660,1436.093,35798.597,35774.453,0
GENERATED VIA SPACETRACK.ORG API,18 SPCS,28945,SPAINSAT,PAYLOAD,U,06007A,2024-03-22 13:57:36,758880,1.00272048,0.0002862,0.0238,220.7428,128.4062,10.8237,0,999,6603,0,-0.00000223,0,4242350,0 SPAINSAT,1 28945U 06007A   24082.58167545 -.00000223  00000-0  00000-0 0  9996,2 28945   0.0238 220.7428 0002862 128.4062  10.8237  1.00272048 66039,2006-007A,28945,42164.658,1436.093,35798.591,35774.456,0
GENERATED VIA SPACETRACK.ORG API,18 SPCS,29162,EUTE 113 WEST A(SATMEX 6,PAYLOAD,U,06020A,2024-03-22 13:52:09,90336,1.00277673,0.0003265,0.255,97.2824,272.7877,265.974,0,999,6528,0,-0.00000048,0,4238588,0 EUTE 113 WEST A(SATMEX 6,1 29162U 06020A   24082.57788299 -.00000048  00000-0  00000-0 0  9992,2 29162   0.2550  97.2824 0003265 272.7877 265.9740  1.00277673 65289,2006-020A,29162,42163.081,1436.013,35798.713,35771.180,0
GENERATED VIA SPACETRACK.ORG API,18 SPCS,43162,SBIRS GEO 3 (USA 282),PAYLOAD,U,18009A,2024-03-22 12:27:19,289664,1.00272648,0.0001983,2.4662,332.5164,24.6035,210.7874,0,999,2265,0,0.00000119,0,4238588,0 SBIRS GEO 3 (USA 282),1 43162U 18009A   24082.51897326  .00000119  00000-0  00000-0 0  9992,2 43162   2.4662 332.5164 0001983  24.6035 210.7874  1.00272648 22657,2018-009A,43162,42164.490,1436.085,35794.716,35777.994,0
GENERATED VIA SPACETRACK.ORG API,18 SPCS,23712,USA 115,PAYLOAD,U,95060A,2024-03-22 11:36:06,715584,1.0027372,0.000338,13.7696,9.6456,331.12,253.6635,0,999,2345,0,-0.0000002,0,4237992,0 USA 115,1 23712U 95060A   24082.48341106 -.00000020  00000-0  00000+0 0  9990,2 23712  13.7696   9.6456 0003380 331.1200 253.6635  1.00273720 23459,1995-060A,23712,42164.190,1436.069,35800.306,35771.803,0
GENERATED VIA SPACETRACK.ORG API,18 SPCS,25001,TITAN 3C TRANSTAGE DEB,DEBRIS,U,68081H,2024-03-22 10:46:42,826656,1.0169163,0.007011,1.0218,348.9937,39.1633,133.4729,0,999,11001,0,0.0000007,0,4239209,0 TITAN 3C TRANSTAGE DEB,1 25001U 68081H   24082.44910679  .00000070  00000-0  00000-0 0  9994,2 25001   1.0218 348.9937 0070110  39.1633 133.4729  1.01691630110018,1968-081H,25001,41771.336,1416.046,35686.060,35100.342,0
